NORAD_CAT_ID,OBJECT_NAME,OBJECT_TYPE,EPOCH,MEAN_MOTION,ECCENTRICITY,INCLINATION,RA_OF_ASC_NODE,ARG_OF_PERICENTER,MEAN_ANOMALY,BSTAR,MEAN_MOTION_DOT,MEAN_MOTION_DDOT,TLE_LINE0,TLE_LINE1,TLE_LINE2,SEMIMAJOR_AXIS,PERIOD,APOGEE,PERIGEE,DECAYED
53547.0,STARLINK-4474,PAYLOAD,2023-09-01 10:03:06,15.08841854,0.0001331,53.2158,235.3738,91.3814,268.7331,0.00010411,1.369e-05,0.0,0 STARLINK-4474,1 53547U 22101W   23244.41882904  .00001369  00000-0  10411-3 0  9990,2 53547  53.2158 235.3738 0001331  91.3814 268.7331 15.08841854 58046,6917.875,95.437,540.66,538.819,0.0
53547.0,STARLINK-4474,PAYLOAD,2023-09-01 16:24:39,15.08841508,0.0001372,53.2168,234.1841,90.6013,269.5136,4.2168e-05,3.83e-06,0.0,0 STARLINK-4474,1 53547U 22101W   23244.68379105  .00000383  00000-0  42168-4 0  9993,2 53547  53.2168 234.1841 0001372  90.6013 269.5136 15.08841508 58089,6917.876,95.437,540.69,538.792,0.0
53547.0,STARLINK-4474,PAYLOAD,2023-09-02 08:18:30,15.08842544,0.0001444,53.2182,231.2101,87.2069,272.9088,8.2679e-05,1.028e-05,0.0,0 STARLINK-4474,1 53547U 22101W   23245.34619033  .00001028  00000-0  82679-4 0  9992,2 53547  53.2182 231.2101 0001444  87.2069 272.9088 15.08842544 57517,6917.873,95.437,540.737,538.739,0.0
53547.0,STARLINK-4474,PAYLOAD,2023-09-02 16:15:26,15.08839368,0.0001429,53.2186,229.7235,89.0716,271.044,4.5521e-05,4.37e-06,0.0,0 STARLINK-4474,1 53547U 22101W   23245.67739327  .00000437  00000-0  45521-4 0  9995,2 53547  53.2186 229.7235 0001429  89.0716 271.0440 15.08839368 58235,6917.882,95.438,540.736,538.759,0.0
53547.0,STARLINK-4474,PAYLOAD,2023-09-03 06:33:54,15.08843908,0.0001525,53.2163,227.0468,89.4556,270.6611,8.2607e-05,1.027e-05,0.0,0 STARLINK-4474,1 53547U 22101W   23246.27354995  .00001027  00000-0  82607-4 0  9998,2 53547  53.2163 227.0468 0001525  89.4556 270.6611 15.08843908 58322,6917.868,95.437,540.788,538.678,0.0
53547.0,STARLINK-4474,PAYLOAD,2023-09-03 16:06:14,15.08837857,0.0001608,53.2169,225.2628,82.1078,278.0097,1.9755e-05,2.6e-07,0.0,0 STARLINK-4474,1 53547U 22101W   23246.67099621  .00000026  00000-0  19755-4 0  9996,2 53547  53.2169 225.2628 0001608  82.1078 278.0097 15.08837857 57715,6917.887,95.438,540.864,538.64,0.0
53547.0,STARLINK-4474,PAYLOAD,2023-09-04 04:49:19,15.08833193,0.0001601,53.2175,222.8835,88.7308,271.3867,-1.5644e-05,-5.37e-06,0.0,0 STARLINK-4474,1 53547U 22101W   23247.20092170 -.00000537  00000-0 -15644-4 0  9990,2 53547  53.2175 222.8835 0001601  88.7308 271.3867 15.08833193 57794,6917.901,95.438,540.874,538.659,0.0
53547.0,STARLINK-4474,PAYLOAD,2023-09-05 04:40:05,15.08846467,0.0001474,53.217,218.4223,91.0606,269.0555,0.00010774,1.427e-05,0.0,0 STARLINK-4474,1 53547U 22101W   23248.19451011  .00001427  00000-0  10774-3 0  9997,2 53547  53.2170 218.4223 0001474  91.0606 269.0555 15.08846467 57940,6917.861,95.437,540.745,538.706,0.0
53547.0,STARLINK-4474,PAYLOAD,2023-09-05 07:50:51,15.08855296,0.0001568,53.2169,217.8275,91.7589,268.3583,1.3453e-05,-7.4e-07,0.0,0 STARLINK-4474,1 53547U 22101W   23248.32698737 -.00000074  00000-0  13453-4 0  9996,2 53547  53.2169 217.8275 0001568  91.7589 268.3583 15.08855296 58639,6917.834,95.437,540.783,538.614,0.0
53547.0,STARLINK-4474,PAYLOAD,2023-09-05 22:09:20,15.08834388,0.0001401,53.2146,215.1508,90.5829,269.5323,0.00011539,1.549e-05,0.0,0 STARLINK-4474,1 53547U 22101W   23248.92315770  .00001549  00000-0  11539-3 0  9994,2 53547  53.2146 215.1508 0001401  90.5829 269.5323 15.08834388 58054,6917.898,95.438,540.732,538.793,0.0
53547.0,STARLINK-4474,PAYLOAD,2023-09-06 07:41:39,15.08841111,0.0001466,53.2166,213.3667,89.3991,270.7169,0.00010527,1.388e-05,0.0,0 STARLINK-4474,1 53547U 22101W   23249.32059554  .00001388  00000-0  10527-3 0  9991,2 53547  53.2166 213.3667 0001466  89.3991 270.7169 15.08841111 58783,6917.877,95.437,540.756,538.728,0.0
53547.0,STARLINK-4474,PAYLOAD,2023-09-07 07:32:26,15.08844209,0.0001545,53.2175,208.9057,90.3465,269.7704,-8.2761e-07,-3.01e-06,0.0,0 STARLINK-4474,1 53547U 22101W   23250.31419560 -.00000301  00000-0 -82761-6 0  9997,2 53547  53.2175 208.9057 0001545  90.3465 269.7704 15.08844209 58269,6917.868,95.437,540.801,538.664,0.0
53547.0,STARLINK-4474,PAYLOAD,2023-09-07 21:50:55,15.088357,0.0001455,53.2146,206.2313,91.642,268.4739,-1.5794e-07,-2.9e-06,0.0,0 STARLINK-4474,1 53547U 22101W   23250.91036168 -.00000290  00000-0 -15794-6 0  9991,2 53547  53.2146 206.2313 0001455  91.6420 268.4739 15.08835700 59023,6917.894,95.438,540.765,538.752,0.0
53547.0,STARLINK-4474,PAYLOAD,2023-09-08 02:37:04,15.08836174,0.0001417,53.2168,205.3383,90.2861,269.8293,-1.2863e-05,-4.93e-06,0.0,0 STARLINK-4474,1 53547U 22101W   23251.10908209 -.00000493  00000-0 -12863-4 0  9994,2 53547  53.2168 205.3383 0001417  90.2861 269.8293 15.08836174 58380,6917.892,95.438,540.737,538.777,0.0
53547.0,STARLINK-4474,PAYLOAD,2023-09-08 07:23:13,15.08841723,0.0001368,53.2166,204.4472,89.8063,270.3086,3.8732e-05,3.29e-06,0.0,0 STARLINK-4474,1 53547U 22101W   23251.30779728  .00000329  00000-0  38732-4 0  9997,2 53547  53.2166 204.4472 0001368  89.8063 270.3086 15.08841723 58417,6917.875,95.437,540.686,538.794,0.0
53547.0,STARLINK-4474,PAYLOAD,2023-09-08 20:06:19,15.08834975,0.0002195,53.2175,202.0695,80.5128,279.6112,1.8696e-05,9e-08,0.0,0 STARLINK-4474,1 53547U 22101W   23251.83772679  .00000009  00000-0  18696-4 0  9995,2 53547  53.2175 202.0695 0002195  80.5128 279.6112 15.08834975 59163,6917.896,95.438,541.279,538.242,0.0
53547.0,STARLINK-4474,PAYLOAD,2023-09-09 02:27:51,15.08839264,0.0001976,53.2173,200.8802,81.9121,278.2095,-6.1182e-06,-3.86e-06,0.0,0 STARLINK-4474,1 53547U 22101W   23252.10268503 -.00000386  00000-0 -61182-5 0  9991,2 53547  53.2173 200.8802 0001976  81.9121 278.2095 15.08839264 58532,6917.883,95.438,541.115,538.381,0.0
53547.0,STARLINK-4474,PAYLOAD,2023-09-09 13:35:33,15.08837912,0.0001599,53.217,198.7973,90.475,269.6425,7.2824e-05,8.71e-06,0.0,0 STARLINK-4474,1 53547U 22101W   23252.56636216  .00000871  00000-0  72824-4 0  9992,2 53547  53.2170 198.7973 0001599  90.4750 269.6425 15.08837912 59278,6917.887,95.438,540.858,538.646,0.0
53547.0,STARLINK-4474,PAYLOAD,2023-09-10 05:29:24,15.08844919,0.0001377,53.2169,195.8233,90.2013,269.9136,0.00016118,2.279e-05,0.0,0 STARLINK-4474,1 53547U 22101W   23253.22875597  .00002279  00000-0  16118-3 0  9990,2 53547  53.2169 195.8233 0001377  90.2013 269.9136 15.08844919 58701,6917.865,95.437,540.683,538.778,0.0
53547.0,STARLINK-4474,PAYLOAD,2023-09-11 02:09:26,15.08837368,0.0001316,53.2172,191.957,98.211,261.9032,4.9288e-06,-2.09e-06,0.0,0 STARLINK-4474,1 53547U 22101W   23254.08988794 -.00000209  00000-0  49288-5 0  9997,2 53547  53.2172 191.9570 0001316  98.2110 261.9032 15.08837368 58836,6917.888,95.438,540.664,538.843,0.0
53547.0,STARLINK-4474,PAYLOAD,2023-09-11 13:17:07,15.08842765,0.0001294,53.2172,189.8758,96.1374,263.9765,4.4271e-05,4.17e-06,0.0,0 STARLINK-4474,1 53547U 22101W   23254.55356395  .00000417  00000-0  44271-4 0  9991,2 53547  53.2172 189.8758 0001294  96.1374 263.9765 15.08842765 59578,6917.872,95.437,540.632,538.842,0.0
53547.0,STARLINK-4474,PAYLOAD,2023-09-12 02:00:12,15.08852579,0.0001356,53.2172,187.4973,91.5155,268.5993,0.00012649,1.726e-05,0.0,0 STARLINK-4474,1 53547U 22101W   23255.08347455  .00001726  00000-0  12649-3 0  9994,2 53547  53.2172 187.4973 0001356  91.5155 268.5993 15.08852579 58988,6917.842,95.437,540.645,538.769,0.0
53547.0,STARLINK-4474,PAYLOAD,2023-09-12 05:10:58,15.08857158,0.0001311,53.2171,186.9027,93.9431,266.1711,0.00011231,1.501e-05,0.0,0 STARLINK-4474,1 53547U 22101W   23255.21595149  .00001501  00000-0  11231-3 0  9991,2 53547  53.2171 186.9027 0001311  93.9431 266.1711 15.08857158 59672,6917.828,95.436,540.6,538.786,0.0
53547.0,STARLINK-4474,PAYLOAD,2023-09-13 01:50:59,15.08844888,0.0001441,53.2172,183.0373,86.5243,273.5914,0.00010982,1.46e-05,0.0,0 STARLINK-4474,1 53547U 22101W   23256.07707997  .00001460  00000-0  10982-3 0  9998,2 53547  53.2172 183.0373 0001441  86.5243 273.5914 15.08844888 59132,6917.865,95.437,540.727,538.734,0.0
53547.0,STARLINK-4474,PAYLOAD,2023-09-13 05:01:45,15.08850812,0.0001351,53.2172,182.4401,93.2386,266.8761,0.00014821,2.072e-05,0.0,0 STARLINK-4474,1 53547U 22101W   23256.20955472  .00002072  00000-0  14821-3 0  9992,2 53547  53.2172 182.4401 0001351  93.2386 266.8761 15.08850812 59825,6917.847,95.437,540.647,538.778,0.0
53547.0,STARLINK-4474,PAYLOAD,2023-09-14 01:41:46,15.08847975,0.0001342,53.2178,178.5764,95.8588,264.2557,-7.2608e-05,-1.444e-05,0.0,0 STARLINK-4474,1 53547U 22101W   23257.07067988 -.00001444  00000-0 -72608-4 0  9996,2 53547  53.2178 178.5764 0001342  95.8588 264.2557 15.08847975 59282,6917.856,95.437,540.649,538.793,0.0
53547.0,STARLINK-4474,PAYLOAD,2023-09-14 04:52:32,15.08847111,0.0001363,53.2179,177.9814,95.9796,264.1352,-4.2661e-05,-9.67e-06,0.0,0 STARLINK-4474,1 53547U 22101W   23257.20315934 -.00000967  00000-0 -42661-4 0  9993,2 53547  53.2179 177.9814 0001363  95.9796 264.1352 15.08847111 59977,6917.859,95.437,540.667,538.781,0.0
53547.0,STARLINK-4474,PAYLOAD,2023-09-14 19:11:02,15.08833472,0.0001481,53.2182,175.3053,103.5391,256.5766,-4.9778e-05,-1.08e-05,0.0,0 STARLINK-4474,1 53547U 22101W   23257.79933046 -.00001080  00000-0 -49778-4 0  9990,2 53547  53.2182 175.3053 0001481 103.5391 256.5766 15.08833472 60067,6917.9,95.438,540.79,538.741,0.0
53547.0,STARLINK-4474,PAYLOAD,2023-09-15 03:07:57,15.08840043,0.0001507,53.2178,173.8228,108.6476,251.468,-4.9308e-06,-3.66e-06,0.0,0 STARLINK-4474,1 53547U 22101W   23258.13052736 -.00000366  00000-0 -49308-5 0  9993,2 53547  53.2178 173.8228 0001507 108.6476 251.4680 15.08840043 59449,6917.88,95.438,540.788,538.703,0.0
53547.0,STARLINK-4474,PAYLOAD,2023-09-15 04:43:20,15.08841327,0.0001539,53.2181,173.5209,107.9605,252.1555,4.3723e-06,-2.18e-06,0.0,0 STARLINK-4474,1 53547U 22101W   23258.19676439 -.00000218  00000-0  43723-5 0  9991,2 53547  53.2181 173.5209 0001539 107.9605 252.1555 15.08841327 60122,6917.876,95.437,540.806,538.677,0.0
